{
    "links": {
        "self": "http://www.neowsapp.com/rest/v1/neo/3364286?api_key=iIulBulltgU6a56xZRHN4H3l9WmuAYTsLGpBGhQ2"
    },
    "id": "3364286",
    "neo_reference_id": "3364286",
    "name": "(2006 YH2)",
    "designation": "2006 YH2",
    "nasa_jpl_url": "http://ssd.jpl.nasa.gov/sbdb.cgi?sstr=3364286",
    "absolute_magnitude_h": 25.4,
    "estimated_diameter": {
        "kilometers": {
            "estimated_diameter_min": 0.022108281,
            "estimated_diameter_max": 0.0494356193
        },
        "meters": {
            "estimated_diameter_min": 22.1082810359,
            "estimated_diameter_max": 49.435619262
        },
        "miles": {
            "estimated_diameter_min": 0.0137374447,
            "estimated_diameter_max": 0.0307178602
        },
        "feet": {
            "estimated_diameter_min": 72.5337327539,
            "estimated_diameter_max": 162.1903570994
        }
    },
    "is_potentially_hazardous_asteroid": false,
    "close_approach_data": [
        {
            "close_approach_date": "2006-12-10",
            "close_approach_date_full": "2006-Dec-10 22:00",
            "epoch_date_close_approach": 1165788000000,
            "relative_velocity": {
                "kilometers_per_second": "5.0891259372",
                "kilometers_per_hour": "18320.853374092",
                "miles_per_hour": "11383.8658090295"
            },
            "miss_distance": {
                "astronomical": "0.1018842",
                "lunar": "39.6329538",
                "kilometers": "15241659.306654",
                "miles": "9470727.9296652"
            },
            "orbiting_body": "Earth"
        }
    ],
    "orbital_data": {
        "orbit_id": "8",
        "orbit_determination_date": "2017-04-06 09:07:17",
        "first_observation_date": "2006-12-21",
        "last_observation_date": "2006-12-24",
        "data_arc_in_days": 3,
        "observations_used": 17,
        "orbit_uncertainty": "8",
        "minimum_orbit_intersection": ".0984262",
        "jupiter_tisserand_invariant": "3.748",
        "epoch_osculation": "2454091.5",
        "eccentricity": ".4485233656614426",
        "semi_major_axis": "1.960457521573876",
        "inclination": "4.352777688867091",
        "ascending_node_longitude": "91.46469434363323",
        "orbital_period": "1002.615886599487",
        "perihelion_distance": "1.081146515761271",
        "perihelion_argument": "342.680313085969",
        "aphelion_distance": "2.839768527386481",
        "perihelion_time": "2454077.529239317600",
        "mean_anomaly": "5.016351638634181",
        "mean_motion": ".359060737827515",
        "equinox": "J2000",
        "orbit_class": {
            "orbit_class_type": "AMO",
            "orbit_class_description": "Near-Earth asteroid orbits similar to that of 1221 Amor",
            "orbit_class_range": "1.017 AU < q (perihelion) < 1.3 AU"
        }
    },
    "is_sentry_object": false
}